HAWK-C                  
1 43799U 18099AT  26068.67261865  .00009431  00000+0  35663-3 0  9994
2 43799  97.4027 122.6817 0040363 277.4052  82.2601 15.26407167398720
STARLINK-33727          
1 63719U 25087Y   26068.69432025  .00028693  00000+0  97596-3 0  9997
2 63719  53.1582 219.2984 0000586  92.8431 267.2637 15.30239099 49202
